{
  "type": "FeatureCollection",
  "features": [
    {
      "type": "Feature",
      "properties": {
        "norad_id": 29486,
        "name": "GPS BIIRM-2 (PRN 31)",
        "group": "gps-ops",
        "lat": -45.169839084953914,
        "lon": 24.253308329591107,
        "alt_km": 20470.190617629825,
        "timestamp": "2025-12-11T20:41:15.340005+00:00",
        "meta_object_name": "GPS BIIRM-2 (PRN 31)",
        "meta_object_id": "2006-042A",
        "meta_epoch": "2025-12-11T13:05:34.988640",
        "meta_mean_motion": 2.00554186,
        "meta_eccentricity": 0.01073607,
        "meta_inclination": 54.694,
        "meta_ra_of_asc_node": 158.788,
        "meta_arg_of_pericenter": 51.9324,
        "meta_mean_anomaly": 320.1242,
        "meta_ephemeris_type": 0,
        "meta_classification_type": "U",
        "meta_norad_cat_id": 29486,
        "meta_element_set_no": 999,
        "meta_rev_at_epoch": 14063,
        "meta_bstar": 0,
        "meta_mean_motion_dot": 8.8e-07,
        "meta_mean_motion_ddot": 0,
        "tle_line1": "1 29486U 06042A   25345.54554385  .00000088  00000+0  00000+0 0  9993",
        "tle_line2": "2 29486  54.6940 158.7880 0107360  51.9324 320.1242  2.00554186140636"
      },
      "geometry": {
        "type": "Point",
        "coordinates": [
          24.253308329591107,
          -45.169839084953914
        ]
      }
    },
    {
      "type": "Feature",
      "properties": {
        "norad_id": 29601,
        "name": "GPS BIIRM-3 (PRN 12)",
        "group": "gps-ops",
        "lat": -46.547447768800154,
        "lon": 173.7229402191405,
        "alt_km": 20387.505462925932,
        "timestamp": "2025-12-11T20:41:15.340017+00:00",
        "meta_object_name": "GPS BIIRM-3 (PRN 12)",
        "meta_object_id": "2006-052A",
        "meta_epoch": "2025-12-10T22:50:57.183936",
        "meta_mean_motion": 2.00573418,
        "meta_eccentricity": 0.00877701,
        "meta_inclination": 54.9709,
        "meta_ra_of_asc_node": 221.4692,
        "meta_arg_of_pericenter": 87.4134,
        "meta_mean_anomaly": 273.6662,
        "meta_ephemeris_type": 0,
        "meta_classification_type": "U",
        "meta_norad_cat_id": 29601,
        "meta_element_set_no": 999,
        "meta_rev_at_epoch": 13963,
        "meta_bstar": 0,
        "meta_mean_motion_dot": 3e-08,
        "meta_mean_motion_ddot": 0,
        "tle_line1": "1 29601U 06052A   25344.95205074  .00000003  00000+0  00000+0 0  9992",
        "tle_line2": "2 29601  54.9709 221.4692 0087770  87.4134 273.6662  2.00573418139630"
      },
      "geometry": {
        "type": "Point",
        "coordinates": [
          173.7229402191405,
          -46.547447768800154
        ]
      }
    },
    {
      "type": "Feature",
      "properties": {
        "norad_id": 32260,
        "name": "GPS BIIRM-4 (PRN 15)",
        "group": "gps-ops",
        "lat": 52.259067932603685,
        "lon": 157.7973542760855,
        "alt_km": 19743.680141333258,
        "timestamp": "2025-12-11T20:41:15.340048+00:00",
        "meta_object_name": "GPS BIIRM-4 (PRN 15)",
        "meta_object_id": "2007-047A",
        "meta_epoch": "2025-12-10T06:15:19.310688",
        "meta_mean_motion": 2.00564571,
        "meta_eccentricity": 0.0164232,
        "meta_inclination": 53.9536,
        "meta_ra_of_asc_node": 87.861,
        "meta_arg_of_pericenter": 85.2178,
        "meta_mean_anomaly": 276.6503,
        "meta_ephemeris_type": 0,
        "meta_classification_type": "U",
        "meta_norad_cat_id": 32260,
        "meta_element_set_no": 999,
        "meta_rev_at_epoch": 13302,
        "meta_bstar": 0,
        "meta_mean_motion_dot": -1.7e-07,
        "meta_mean_motion_ddot": 0,
        "tle_line1": "1 32260U 07047A   25344.26064017 -.00000017  00000+0  00000+0 0  9992",
        "tle_line2": "2 32260  53.9536  87.8610 0164232  85.2178 276.6503  2.00564571133023"
      },
      "geometry": {
        "type": "Point",
        "coordinates": [
          157.7973542760855,
          52.259067932603685
        ]
      }
    },
    {
      "type": "Feature",
      "properties": {
        "norad_id": 32384,
        "name": "GPS BIIRM-5 (PRN 29)",
        "group": "gps-ops",
        "lat": -22.371447508814736,
        "lon": 118.29085231512671,
        "alt_km": 20123.42160324929,
        "timestamp": "2025-12-11T20:41:15.340062+00:00",
        "meta_object_name": "GPS BIIRM-5 (PRN 29)",
        "meta_object_id": "2007-062A",
        "meta_epoch": "2025-12-11T07:35:29.001696",
        "meta_mean_motion": 2.00577198,
        "meta_eccentricity": 0.00322342,
        "meta_inclination": 55.1834,
        "meta_ra_of_asc_node": 281.703,
        "meta_arg_of_pericenter": 162.5016,
        "meta_mean_anomaly": 10.7784,
        "meta_ephemeris_type": 0,
        "meta_classification_type": "U",
        "meta_norad_cat_id": 32384,
        "meta_element_set_no": 999,
        "meta_rev_at_epoch": 13174,
        "meta_bstar": 0,
        "meta_mean_motion_dot": -7e-07,
        "meta_mean_motion_ddot": 0,
        "tle_line1": "1 32384U 07062A   25345.31630789 -.00000070  00000+0  00000+0 0  9997",
        "tle_line2": "2 32384  55.1834 281.7030 0032234 162.5016  10.7784  2.00577198131746"
      },
      "geometry": {
        "type": "Point",
        "coordinates": [
          118.29085231512671,
          -22.371447508814736
        ]
      }
    },
    {
      "type": "Feature",
      "properties": {
        "norad_id": 32711,
        "name": "GPS BIIRM-6 (PRN 07)",
        "group": "gps-ops",
        "lat": 38.801736139012895,
        "lon": -57.66532731328245,
        "alt_km": 20398.560952139676,
        "timestamp": "2025-12-11T20:41:15.340074+00:00",
        "meta_object_name": "GPS BIIRM-6 (PRN 07)",
        "meta_object_id": "2008-012A",
        "meta_epoch": "2025-12-10T16:18:30.026016",
        "meta_mean_motion": 2.00565518,
        "meta_eccentricity": 0.0202357,
        "meta_inclination": 54.4769,
        "meta_ra_of_asc_node": 157.4551,
        "meta_arg_of_pericenter": 244.9238,
        "meta_mean_anomaly": 112.9713,
        "meta_ephemeris_type": 0,
        "meta_classification_type": "U",
        "meta_norad_cat_id": 32711,
        "meta_element_set_no": 999,
        "meta_rev_at_epoch": 12997,
        "meta_bstar": 0,
        "meta_mean_motion_dot": 7.9e-07,
        "meta_mean_motion_ddot": 0,
        "tle_line1": "1 32711U 08012A   25344.67951419  .00000079  00000+0  00000+0 0  9999",
        "tle_line2": "2 32711  54.4769 157.4551 0202357 244.9238 112.9713  2.00565518129974"
      },
      "geometry": {
        "type": "Point",
        "coordinates": [
          -57.66532731328245,
          38.801736139012895
        ]
      }
    },
    {
      "type": "Feature",
      "properties": {
        "norad_id": 35752,
        "name": "GPS BIIRM-8 (PRN 05)",
        "group": "gps-ops",
        "lat": 22.720990230109777,
        "lon": -161.51419244980943,
        "alt_km": 20132.34749587665,
        "timestamp": "2025-12-11T20:41:15.340085+00:00",
        "meta_object_name": "GPS BIIRM-8 (PRN 05)",
        "meta_object_id": "2009-043A",
        "meta_epoch": "2025-12-10T15:39:24.141600",
        "meta_mean_motion": 2.0056577,
        "meta_eccentricity": 0.0051863,
        "meta_inclination": 56.0896,
        "meta_ra_of_asc_node": 34.8654,
        "meta_arg_of_pericenter": 81.9471,
        "meta_mean_anomaly": 276.3471,
        "meta_ephemeris_type": 0,
        "meta_classification_type": "U",
        "meta_norad_cat_id": 35752,
        "meta_element_set_no": 999,
        "meta_rev_at_epoch": 11957,
        "meta_bstar": 0,
        "meta_mean_motion_dot": -9.3e-07,
        "meta_mean_motion_ddot": 0,
        "tle_line1": "1 35752U 09043A   25344.65236275 -.00000093  00000+0  00000+0 0  9993",
        "tle_line2": "2 35752  56.0896  34.8654 0051863  81.9471 276.3471  2.00565770119576"
      },
      "geometry": {
        "type": "Point",
        "coordinates": [
          -161.51419244980943,
          22.720990230109777
        ]
      }
    },
    {
      "type": "Feature",
      "properties": {
        "norad_id": 36585,
        "name": "GPS BIIF-1  (PRN 25)",
        "group": "gps-ops",
        "lat": -54.2949395592395,
        "lon": 125.21951823731426,
        "alt_km": 20493.15945898672,
        "timestamp": "2025-12-11T20:41:15.340096+00:00",
        "meta_object_name": "GPS BIIF-1  (PRN 25)",
        "meta_object_id": "2010-022A",
        "meta_epoch": "2025-12-11T05:47:33.116064",
        "meta_mean_motion": 2.00553131,
        "meta_eccentricity": 0.01260483,
        "meta_inclination": 54.3003,
        "meta_ra_of_asc_node": 216.1344,
        "meta_arg_of_pericenter": 65.0548,
        "meta_mean_anomaly": 116.9692,
        "meta_ephemeris_type": 0,
        "meta_classification_type": "U",
        "meta_norad_cat_id": 36585,
        "meta_element_set_no": 999,
        "meta_rev_at_epoch": 11382,
        "meta_bstar": 0,
        "meta_mean_motion_dot": 1.3e-07,
        "meta_mean_motion_ddot": 0,
        "tle_line1": "1 36585U 10022A   25345.24135551  .00000013  00000+0  00000+0 0  9999",
        "tle_line2": "2 36585  54.3003 216.1344 0126048  65.0548 116.9692  2.00553131113823"
      },
      "geometry": {
        "type": "Point",
        "coordinates": [
          125.21951823731426,
          -54.2949395592395
        ]
      }
    }
  ]
}